{
  "type": "FeatureCollection",
  "features": [
    {
      "type": "Feature",
      "properties": {
        "norad_id": 22490,
        "name": "SCD 1",
        "group": "resource",
        "lat": -24.354099001700497,
        "lon": -106.7202338716356,
        "alt_km": 718.4091216675806,
        "timestamp": "2025-12-04T10:51:49.762339+00:00",
        "meta_object_name": "SCD 1",
        "meta_object_id": "1993-009B",
        "meta_epoch": "2025-12-03T11:00:20.206080",
        "meta_mean_motion": 14.45987996,
        "meta_eccentricity": 0.00418156,
        "meta_inclination": 24.971,
        "meta_ra_of_asc_node": 335.9791,
        "meta_arg_of_pericenter": 226.2897,
        "meta_mean_anomaly": 270.2791,
        "meta_ephemeris_type": 0,
        "meta_classification_type": "U",
        "meta_norad_cat_id": 22490,
        "meta_element_set_no": 999,
        "meta_rev_at_epoch": 73275,
        "meta_bstar": 0.00014086793,
        "meta_mean_motion_dot": 7.02e-06,
        "meta_mean_motion_ddot": 0,
        "tle_line1": "1 22490U 93009B   25337.45856720  .00000702  00000+0  14087-3 0  9996",
        "tle_line2": "2 22490  24.9710 335.9791 0041815 226.2897 270.2791 14.45987996732758"
      },
      "geometry": {
        "type": "Point",
        "coordinates": [
          -106.7202338716356,
          -24.354099001700497
        ]
      }
    },
    {
      "type": "Feature",
      "properties": {
        "norad_id": 25397,
        "name": "TECHSAT 1B (GO-32)",
        "group": "resource",
        "lat": 0.994713814144353,
        "lon": 141.6312618444131,
        "alt_km": 813.8885789428741,
        "timestamp": "2025-12-04T10:51:49.762365+00:00",
        "meta_object_name": "TECHSAT 1B (GO-32)",
        "meta_object_id": "1998-043D",
        "meta_epoch": "2025-12-03T22:13:32.295072",
        "meta_mean_motion": 14.24373188,
        "meta_eccentricity": 0.0002221,
        "meta_inclination": 98.9913,
        "meta_ra_of_asc_node": 320.9351,
        "meta_arg_of_pericenter": 71.8261,
        "meta_mean_anomaly": 288.3159,
        "meta_ephemeris_type": 0,
        "meta_classification_type": "U",
        "meta_norad_cat_id": 25397,
        "meta_element_set_no": 999,
        "meta_rev_at_epoch": 42353,
        "meta_bstar": 0.00010215,
        "meta_mean_motion_dot": 1.9e-06,
        "meta_mean_motion_ddot": 0,
        "tle_line1": "1 25397U 98043D   25337.92606823  .00000190  00000+0  10215-3 0  9997",
        "tle_line2": "2 25397  98.9913 320.9351 0002221  71.8261 288.3159 14.24373188423536"
      },
      "geometry": {
        "type": "Point",
        "coordinates": [
          141.6312618444131,
          0.994713814144353
        ]
      }
    },
    {
      "type": "Feature",
      "properties": {
        "norad_id": 25504,
        "name": "SCD 2",
        "group": "resource",
        "lat": -11.677459280869682,
        "lon": 166.66397523230208,
        "alt_km": 743.4329933212148,
        "timestamp": "2025-12-04T10:51:49.762381+00:00",
        "meta_object_name": "SCD 2",
        "meta_object_id": "1998-060A",
        "meta_epoch": "2025-12-03T07:34:14.746944",
        "meta_mean_motion": 14.45414838,
        "meta_eccentricity": 0.0016689,
        "meta_inclination": 24.9937,
        "meta_ra_of_asc_node": 200.0088,
        "meta_arg_of_pericenter": 212.8278,
        "meta_mean_anomaly": 308.9112,
        "meta_ephemeris_type": 0,
        "meta_classification_type": "U",
        "meta_norad_cat_id": 25504,
        "meta_element_set_no": 999,
        "meta_rev_at_epoch": 43195,
        "meta_bstar": 0.00010911,
        "meta_mean_motion_dot": 5.73e-06,
        "meta_mean_motion_ddot": 0,
        "tle_line1": "1 25504U 98060A   25337.31544846  .00000573  00000+0  10911-3 0  9993",
        "tle_line2": "2 25504  24.9937 200.0088 0016689 212.8278 308.9112 14.45414838431958"
      },
      "geometry": {
        "type": "Point",
        "coordinates": [
          166.66397523230208,
          -11.677459280869682
        ]
      }
    },
    {
      "type": "Feature",
      "properties": {
        "norad_id": 25757,
        "name": "DLR-TUBSAT",
        "group": "resource",
        "lat": -73.67754520080233,
        "lon": -5.946101334713772,
        "alt_km": 721.2209759500802,
        "timestamp": "2025-12-04T10:51:49.762393+00:00",
        "meta_object_name": "DLR-TUBSAT",
        "meta_object_id": "1999-029B",
        "meta_epoch": "2025-12-03T21:59:10.893984",
        "meta_mean_motion": 14.52352412,
        "meta_eccentricity": 0.0013422,
        "meta_inclination": 98.6555,
        "meta_ra_of_asc_node": 322.1579,
        "meta_arg_of_pericenter": 220.596,
        "meta_mean_anomaly": 139.4235,
        "meta_ephemeris_type": 0,
        "meta_classification_type": "U",
        "meta_norad_cat_id": 25757,
        "meta_element_set_no": 999,
        "meta_rev_at_epoch": 40490,
        "meta_bstar": 8.1828e-05,
        "meta_mean_motion_dot": 2.85e-06,
        "meta_mean_motion_ddot": 0,
        "tle_line1": "1 25757U 99029B   25337.91609831  .00000285  00000+0  81828-4 0  9997",
        "tle_line2": "2 25757  98.6555 322.1579 0013422 220.5960 139.4235 14.52352412404904"
      },
      "geometry": {
        "type": "Point",
        "coordinates": [
          -5.946101334713772,
          -73.67754520080233
        ]
      }
    },
    {
      "type": "Feature",
      "properties": {
        "norad_id": 25994,
        "name": "TERRA",
        "group": "resource",
        "lat": 81.71116949425883,
        "lon": -75.31978816595924,
        "alt_km": 680.4396584546976,
        "timestamp": "2025-12-04T10:51:49.762405+00:00",
        "meta_object_name": "TERRA",
        "meta_object_id": "1999-068A",
        "meta_epoch": "2025-12-03T22:05:08.452608",
        "meta_mean_motion": 14.60937035,
        "meta_eccentricity": 0.00034241,
        "meta_inclination": 97.9761,
        "meta_ra_of_asc_node": 29.9277,
        "meta_arg_of_pericenter": 115.5396,
        "meta_mean_anomaly": 58.1773,
        "meta_ephemeris_type": 0,
        "meta_classification_type": "U",
        "meta_norad_cat_id": 25994,
        "meta_element_set_no": 999,
        "meta_rev_at_epoch": 38109,
        "meta_bstar": 0.0002141,
        "meta_mean_motion_dot": 1.004e-05,
        "meta_mean_motion_ddot": 0,
        "tle_line1": "1 25994U 99068A   25337.92023672  .00001004  00000+0  21410-3 0  9997",
        "tle_line2": "2 25994  97.9761  29.9277 0003424 115.5396  58.1773 14.60937035381099"
      },
      "geometry": {
        "type": "Point",
        "coordinates": [
          -75.31978816595924,
          81.71116949425883
        ]
      }
    },
    {
      "type": "Feature",
      "properties": {
        "norad_id": 27004,
        "name": "MAROC-TUBSAT",
        "group": "resource",
        "lat": -76.80559728336115,
        "lon": -80.6848044578925,
        "alt_km": 992.7943794116127,
        "timestamp": "2025-12-04T10:51:49.762417+00:00",
        "meta_object_name": "MAROC-TUBSAT",
        "meta_object_id": "2001-056D",
        "meta_epoch": "2025-12-03T17:54:00.137088",
        "meta_mean_motion": 13.70252218,
        "meta_eccentricity": 0.0019098,
        "meta_inclination": 99.7912,
        "meta_ra_of_asc_node": 146.0334,
        "meta_arg_of_pericenter": 284.0825,
        "meta_mean_anomaly": 92.2061,
        "meta_ephemeris_type": 0,
        "meta_classification_type": "U",
        "meta_norad_cat_id": 27004,
        "meta_element_set_no": 999,
        "meta_rev_at_epoch": 19942,
        "meta_bstar": 3.5064177e-05,
        "meta_mean_motion_dot": -1.6e-07,
        "meta_mean_motion_ddot": 0,
        "tle_line1": "1 27004U 01056D   25337.74583492 -.00000016  00000+0  35064-4 0  9996",
        "tle_line2": "2 27004  99.7912 146.0334 0019098 284.0825  92.2061 13.70252218199425"
      },
      "geometry": {
        "type": "Point",
        "coordinates": [
          -80.6848044578925,
          -76.80559728336115
        ]
      }
    },
    {
      "type": "Feature",
      "properties": {
        "norad_id": 27424,
        "name": "AQUA",
        "group": "resource",
        "lat": -58.02501492057528,
        "lon": -47.10622799595032,
        "alt_km": 695.051154943335,
        "timestamp": "2025-12-04T10:51:49.762428+00:00",
        "meta_object_name": "AQUA",
        "meta_object_id": "2002-022A",
        "meta_epoch": "2025-12-03T22:24:45.484128",
        "meta_mean_motion": 14.61776098,
        "meta_eccentricity": 7.58e-05,
        "meta_inclination": 98.4024,
        "meta_ra_of_asc_node": 298.6706,
        "meta_arg_of_pericenter": 109.5998,
        "meta_mean_anomaly": 342.9166,
        "meta_ephemeris_type": 0,
        "meta_classification_type": "U",
        "meta_norad_cat_id": 27424,
        "meta_element_set_no": 999,
        "meta_rev_at_epoch": 25474,
        "meta_bstar": 0.00041796252,
        "meta_mean_motion_dot": 2.036e-05,
        "meta_mean_motion_ddot": 0,
        "tle_line1": "1 27424U 02022A   25337.93385977  .00002036  00000+0  41796-3 0  9996",
        "tle_line2": "2 27424  98.4024 298.6706 0000758 109.5998 342.9166 14.61776098254749"
      },
      "geometry": {
        "type": "Point",
        "coordinates": [
          -47.10622799595032,
          -58.02501492057528
        ]
      }
    }
  ]
}